OBJECT_NAME,OBJECT_ID,EPOCH,MEAN_MOTION,ECCENTRICITY,INCLINATION,RA_OF_ASC_NODE,ARG_OF_PERICENTER,MEAN_ANOMALY,EPHEMERIS_TYPE,CLASSIFICATION_TYPE,NORAD_CAT_ID,ELEMENT_SET_NO,REV_AT_EPOCH,BSTAR,MEAN_MOTION_DOT,MEAN_MOTION_DDOT
ONEWEB-0162,2021-025Q,2026-07-16T18:18:40.202784,13.13469534,.0001887,87.8981,314.3390,95.5798,264.5547,0,U,48056,999,25742,.34412E-3,.138E-5,0
ONEWEB-0155,2021-025R,2026-07-16T18:28:36.812064,13.13473866,.0002033,87.8982,314.3341,97.6696,262.4664,0,U,48057,999,25756,.76799E-3,.293E-5,0
ONEWEB-0149,2021-025S,2026-07-16T08:02:07.533024,13.13469319,.0001856,87.8987,314.4245,93.7038,266.4303,0,U,48058,999,25731,-.93077E-4,-.21E-6,0
ONEWEB-0148,2021-025T,2026-07-16T18:06:40.038048,13.13470117,.0001905,87.8978,314.3463,82.8262,277.3084,0,U,48059,999,25749,-.18752E-3,-.56E-6,0
ONEWEB-0160,2021-025U,2026-07-16T18:31:02.479008,13.13469433,.0001457,87.8977,314.3390,118.7387,241.3889,0,U,48060,999,25744,.74551E-3,.285E-5,0
ONEWEB-0163,2021-025V,2026-07-16T14:29:42.809280,13.13470468,.0002238,87.8985,314.3691,97.2616,262.8768,0,U,48061,999,25754,.32227E-3,.13E-5,0
ONEWEB-0159,2021-025W,2026-07-16T17:56:54.737664,13.13470146,.0002204,87.8988,314.3344,98.6257,261.5122,0,U,48062,999,25748,-.68053E-3,-.236E-5,0
ONEWEB-0164,2021-025X,2026-07-16T08:21:36.862848,13.13469894,.0001918,87.8989,314.4200,102.0545,258.0799,0,U,48063,999,25741,-.5623E-3,-.193E-5,0
ONEWEB-0167,2021-025Y,2026-07-16T18:10:20.030592,13.13470194,.0002583,87.8977,314.3460,107.1257,253.0155,0,U,48064,999,25745,.47331E-4,.3E-6,0
ONEWEB-0166,2021-025Z,2026-07-16T09:34:45.581952,13.13469370,.0001953,87.8988,314.3914,98.1865,261.9486,0,U,48065,999,25748,.64765E-3,.249E-5,0
ONEWEB-0151,2021-025AA,2026-07-16T09:37:11.053632,13.13469486,.0002059,87.8987,314.4058,103.5229,256.6130,0,U,48066,999,25742,.72677E-3,.278E-5,0
ONEWEB-0170,2021-025AB,2026-07-16T07:59:40.381728,13.13469370,.000189,87.8983,314.4214,116.7088,243.4235,0,U,48067,999,25737,.29195E-3,.119E-5,0
ONEWEB-0168,2021-025AC,2026-07-16T18:35:55.202208,13.13469117,.0002017,87.8986,314.3350,100.5543,259.5813,0,U,48068,999,25744,.8048E-3,.307E-5,0
ONEWEB-0173,2021-025AD,2026-07-16T09:15:15.292224,13.13469316,.0002337,87.8979,314.4123,99.8468,260.2925,0,U,48069,999,25763,.78828E-3,.301E-5,0
ONEWEB-0171,2021-025AE,2026-07-16T17:27:39.393792,13.13468626,.0002005,87.8980,314.3513,102.3937,257.7417,0,U,48070,999,25749,-.6034E-3,-.208E-5,0
ONEWEB-0172,2021-025AF,2026-07-16T09:39:37.231200,13.13470212,.0002092,87.8992,314.4084,101.5783,258.5581,0,U,48071,999,25834,.51089E-3,.199E-5,0
ONEWEB-0174,2021-025AG,2026-07-16T09:12:49.278816,13.13469822,.0001971,87.8986,314.4105,95.6726,264.4628,0,U,48072,999,25766,.49508E-3,.194E-5,0
ONEWEB-0175,2021-025AH,2026-07-16T13:36:04.708224,13.13469744,.0002105,87.8988,314.3598,108.9148,251.2209,0,U,48073,999,25734,-.71253E-4,-.13E-6,0
ONEWEB-0177,2021-025AJ,2026-07-16T13:53:08.350368,13.13470491,.0002125,87.8986,314.3750,94.8472,265.2900,0,U,48074,999,25753,-.5526E-3,-.189E-5,0
ONEWEB-0178,2021-025AK,2026-07-16T17:59:32.936064,13.13470999,.0002207,87.8976,314.3506,103.6559,256.4816,0,U,48075,999,25760,-.5519E-3,-.189E-5,0
ONEWEB-0108,2021-025AL,2026-07-16T13:21:27.450144,13.13469666,.0001732,87.8989,314.3719,97.3179,262.8147,0,U,48076,999,25750,.78653E-3,.3E-5,0
ONEWEB-0169,2021-025AM,2026-07-16T14:07:46.126848,13.13469901,.0001974,87.8984,314.3713,96.3818,263.7536,0,U,48077,999,25616,-.68479E-3,-.237E-5,0
ONEWEB-0176,2021-031A,2026-07-16T17:06:16.678656,13.14502379,.0002147,87.8970,283.8169,100.6002,259.5370,0,U,48210,999,25219,-.44123E-4,-.4E-7,0
ONEWEB-0184,2021-031B,2026-07-16T07:19:24.932352,13.14502646,.0002633,87.8973,283.9005,113.5581,246.5825,0,U,48211,999,25211,.36403E-3,.148E-5,0
ONEWEB-0179,2021-031C,2026-07-16T15:31:44.116032,14.25549418,.0221879,87.8991,279.8835,160.7206,200.2554,0,U,48212,999,25324,.43973E-4,.156E-5,0
ONEWEB-0180,2021-031D,2026-07-16T05:34:22.509408,13.14503219,.0002476,87.8978,283.9118,98.5843,261.5567,0,U,48213,999,25203,.73829E-3,.287E-5,0
ONEWEB-0218,2021-031E,2026-07-16T15:14:22.792992,13.14503685,.000285,87.8980,283.8304,108.4644,251.6796,0,U,48214,999,25224,.18218E-4,.2E-6,0
ONEWEB-0209,2021-031F,2026-07-16T14:58:24.528000,13.14503411,.0002236,87.8970,283.8472,95.8133,264.3251,0,U,48215,999,25224,.50278E-3,.199E-5,0
ONEWEB-0198,2021-031G,2026-07-16T07:17:19.947840,13.14503135,.0002475,87.8960,283.9081,99.4509,260.6901,0,U,48216,999,25231,.52877E-3,.209E-5,0
ONEWEB-0189,2021-031H,2026-07-16T11:14:37.197312,13.14502804,.0002388,87.8971,283.8646,99.7135,260.4265,0,U,48217,999,25207,.61916E-3,.242E-5,0
