ONEWEB-0162             
1 48056U 21025Q   26197.76296531  .00000138  00000+0  34412-3 0  9995
2 48056  87.8981 314.3390 0001887  95.5798 264.5547 13.13469534257428
ONEWEB-0155             
1 48057U 21025R   26197.76987051  .00000293  00000+0  76799-3 0  9996
2 48057  87.8982 314.3341 0002033  97.6696 262.4664 13.13473866257565
ONEWEB-0149             
1 48058U 21025S   26197.33480941 -.00000021  00000+0 -93077-4 0  9996
2 48058  87.8987 314.4245 0001856  93.7038 266.4303 13.13469319257319
ONEWEB-0148             
1 48059U 21025T   26197.75463007 -.00000056  00000+0 -18752-3 0  9991
2 48059  87.8978 314.3463 0001905  82.8262 277.3084 13.13470117257498
ONEWEB-0160             
1 48060U 21025U   26197.77155647  .00000285  00000+0  74551-3 0  9994
2 48060  87.8977 314.3390 0001457 118.7387 241.3889 13.13469433257445
ONEWEB-0163             
1 48061U 21025V   26197.60396770  .00000130  00000+0  32227-3 0  9994
2 48061  87.8985 314.3691 0002238  97.2616 262.8768 13.13470468257548
ONEWEB-0159             
1 48062U 21025W   26197.74785576 -.00000236  00000+0 -68053-3 0  9991
2 48062  87.8988 314.3344 0002204  98.6257 261.5122 13.13470146257482
ONEWEB-0164             
1 48063U 21025X   26197.34834332 -.00000193  00000+0 -56230-3 0  9999
2 48063  87.8989 314.4200 0001918 102.0545 258.0799 13.13469894257419
ONEWEB-0167             
1 48064U 21025Y   26197.75717628  .00000030  00000+0  47331-4 0  9994
2 48064  87.8977 314.3460 0002583 107.1257 253.0155 13.13470194257459
ONEWEB-0166             
1 48065U 21025Z   26197.39913868  .00000249  00000+0  64765-3 0  9990
2 48065  87.8988 314.3914 0001953  98.1865 261.9486 13.13469370257482
ONEWEB-0151             
1 48066U 21025AA  26197.40082238  .00000278  00000+0  72677-3 0  9994
2 48066  87.8987 314.4058 0002059 103.5229 256.6130 13.13469486257424
ONEWEB-0170             
1 48067U 21025AB  26197.33310627  .00000119  00000+0  29195-3 0  9994
2 48067  87.8983 314.4214 0001890 116.7088 243.4235 13.13469370257372
ONEWEB-0168             
1 48068U 21025AC  26197.77494447  .00000307  00000+0  80480-3 0  9999
2 48068  87.8986 314.3350 0002017 100.5543 259.5813 13.13469117257442
ONEWEB-0173             
1 48069U 21025AD  26197.38559366  .00000301  00000+0  78828-3 0  9996
2 48069  87.8979 314.4123 0002337  99.8468 260.2925 13.13469316257630
ONEWEB-0171             
1 48070U 21025AE  26197.72753928 -.00000208  00000+0 -60340-3 0  9994
2 48070  87.8980 314.3513 0002005 102.3937 257.7417 13.13468626257493
ONEWEB-0172             
1 48071U 21025AF  26197.40251425  .00000199  00000+0  51089-3 0  9992
2 48071  87.8992 314.4084 0002092 101.5783 258.5581 13.13470212258347
ONEWEB-0174             
1 48072U 21025AG  26197.38390369  .00000194  00000+0  49508-3 0  9999
2 48072  87.8986 314.4105 0001971  95.6726 264.4628 13.13469822257667
ONEWEB-0175             
1 48073U 21025AH  26197.56672116 -.00000013  00000+0 -71253-4 0  9998
2 48073  87.8988 314.3598 0002105 108.9148 251.2209 13.13469744257348
ONEWEB-0177             
1 48074U 21025AJ  26197.57856887 -.00000189  00000+0 -55260-3 0  9992
2 48074  87.8986 314.3750 0002125  94.8472 265.2900 13.13470491257537
ONEWEB-0178             
1 48075U 21025AK  26197.74968676 -.00000189  00000+0 -55190-3 0  9994
2 48075  87.8976 314.3506 0002207 103.6559 256.4816 13.13470999257601
ONEWEB-0108             
1 48076U 21025AL  26197.55656771  .00000300  00000+0  78653-3 0  9996
2 48076  87.8989 314.3719 0001732  97.3179 262.8147 13.13469666257507
ONEWEB-0169             
1 48077U 21025AM  26197.58872832 -.00000237  00000+0 -68479-3 0  9994
2 48077  87.8984 314.3713 0001974  96.3818 263.7536 13.13469901256169
ONEWEB-0176             
1 48210U 21031A   26197.71269304 -.00000004  00000+0 -44123-4 0  9992
2 48210  87.8970 283.8169 0002147 100.6002 259.5370 13.14502379252191
ONEWEB-0184             
1 48211U 21031B   26197.30514968  .00000148  00000+0  36403-3 0  9995
2 48211  87.8973 283.9005 0002633 113.5581 246.5825 13.14502646252110
ONEWEB-0179             
1 48212U 21031C   26197.64703838  .00000156  00000+0  43973-4 0  9999
2 48212  87.8991 279.8835 0221879 160.7206 200.2554 14.25549418253241
ONEWEB-0180             
1 48213U 21031D   26197.23220497  .00000287  00000+0  73829-3 0  9997
2 48213  87.8978 283.9118 0002476  98.5843 261.5567 13.14503219252038
ONEWEB-0218             
1 48214U 21031E   26197.63498603  .00000020  00000+0  18218-4 0  9995
2 48214  87.8980 283.8304 0002850 108.4644 251.6796 13.14503685252248
ONEWEB-0209             
1 48215U 21031F   26197.62389500  .00000199  00000+0  50278-3 0  9998
2 48215  87.8970 283.8472 0002236  95.8133 264.3251 13.14503411252248
ONEWEB-0198             
1 48216U 21031G   26197.30370310  .00000209  00000+0  52877-3 0  9992
2 48216  87.8960 283.9081 0002475  99.4509 260.6901 13.14503135252319
ONEWEB-0189             
1 48217U 21031H   26197.46848608  .00000242  00000+0  61916-3 0  9991
2 48217  87.8971 283.8646 0002388  99.7135 260.4265 13.14502804252075
